{"type": "FeatureCollection", "features": [ {"type": "Feature", "properties": {"norad_id": 65304, "name": "DRAGON CRS-33", "group": "stations", "lat": 34.279008712130334, "lon": -94.57255257970198, "alt_km": 414.6289637893897, "timestamp": "2025-12-17T15:50:08.541247+00:00", "meta": {"OBJECT_NAME": "DRAGON CRS-33", "OBJECT_ID": "2025-186A", "EPOCH": "2025-12-17T01:19:48.717408", "MEAN_MOTION": 15.49629327, "ECCENTRICITY": 0.00031735, "INCLINATION": 51.6309, "RA_OF_ASC_NODE": 121.1077, "ARG_OF_PERICENTER": 260.4156, "MEAN_ANOMALY": 99.6474, "EPHEMERIS_TYPE": 0, "CLASSIFICATION_TYPE": "U", "NORAD_CAT_ID": 65304, "ELEMENT_SET_NO": 999, "REV_AT_EPOCH": 11, "BSTAR": 0.00014583435, "MEAN_MOTION_DOT": 7.77e-05, "MEAN_MOTION_DDOT": 0}, "tle": {"line1": "1 65304U 25186A   25351.05542497  .00007770  00000+0  14583-3 0  9996", "line2": "2 65304  51.6309 121.1077 0003173 260.4156  99.6474 15.49629327   110"}}, "geometry": {"type": "Point", "coordinates": [-94.57255257970198, 34.279008712130334]}}, {"type": "Feature", "properties": {"norad_id": 65586, "name": "PROGRESS-MS 32", "group": "stations", "lat": 34.27900820022054, "lon": -94.57255187462225, "alt_km": 414.628963848726, "timestamp": "2025-12-17T15:50:08.541259+00:00", "meta": {"OBJECT_NAME": "PROGRESS-MS 32", "OBJECT_ID": "2025-204A", "EPOCH": "2025-12-17T01:19:48.717408", "MEAN_MOTION": 15.49629327, "ECCENTRICITY": 0.00031735, "INCLINATION": 51.6309, "RA_OF_ASC_NODE": 121.1077, "ARG_OF_PERICENTER": 260.4156, "MEAN_ANOMALY": 99.6474, "EPHEMERIS_TYPE": 0, "CLASSIFICATION_TYPE": "U", "NORAD_CAT_ID": 65586, "ELEMENT_SET_NO": 999, "REV_AT_EPOCH": 27, "BSTAR": 0.00014583435, "MEAN_MOTION_DOT": 7.77e-05, "MEAN_MOTION_DDOT": 0}, "tle": {"line1": "1 65586U 25204A   25351.05542497  .00007770  00000+0  14583-3 0  9999", "line2": "2 65586  51.6309 121.1077 0003173 260.4156  99.6474 15.49629327   279"}}, "geometry": {"type": "Point", "coordinates": [-94.57255187462225, 34.27900820022054]}}, {"type": "Feature", "properties": {"norad_id": 65616, "name": "CYGNUS NG-23", "group": "stations", "lat": 34.27900773096957, "lon": -94.57255122829875, "alt_km": 414.628963903122, "timestamp": "2025-12-17T15:50:08.541270+00:00", "meta": {"OBJECT_NAME": "CYGNUS NG-23", "OBJECT_ID": "2025-208A", "EPOCH": "2025-12-17T01:19:48.717408", "MEAN_MOTION": 15.49629327, "ECCENTRICITY": 0.00031735, "INCLINATION": 51.6309, "RA_OF_ASC_NODE": 121.1077, "ARG_OF_PERICENTER": 260.4156, "MEAN_ANOMALY": 99.6474, "EPHEMERIS_TYPE": 0, "CLASSIFICATION_TYPE": "U", "NORAD_CAT_ID": 65616, "ELEMENT_SET_NO": 999, "REV_AT_EPOCH": 22, "BSTAR": 0.00014583435, "MEAN_MOTION_DOT": 7.77e-05, "MEAN_MOTION_DDOT": 0}, "tle": {"line1": "1 65616U 25208A   25351.05542497  .00007770  00000+0  14583-3 0  9997", "line2": "2 65616  51.6309 121.1077 0003173 260.4156  99.6474 15.49629327   228"}}, "geometry": {"type": "Point", "coordinates": [-94.57255122829875, 34.27900773096957]}}, {"type": "Feature", "properties": {"norad_id": 65729, "name": "DRAGONFLY", "group": "stations", "lat": 12.978247556994315, "lon": -79.9887973017636, "alt_km": 351.49496338132576, "timestamp": "2025-12-17T15:50:08.541281+00:00", "meta": {"OBJECT_NAME": "DRAGONFLY", "OBJECT_ID": "1998-067XH", "EPOCH": "2025-12-16T13:13:48.986688", "MEAN_MOTION": 15.7319978, "ECCENTRICITY": 0.00071179, "INCLINATION": 51.6242, "RA_OF_ASC_NODE": 116.2265, "ARG_OF_PERICENTER": 302.756, "MEAN_ANOMALY": 57.2752, "EPHEMERIS_TYPE": 0, "CLASSIFICATION_TYPE": "U", "NORAD_CAT_ID": 65729, "ELEMENT_SET_NO": 999, "REV_AT_EPOCH": 1376, "BSTAR": 0.0010910742, "MEAN_MOTION_DOT": 0.00155828, "MEAN_MOTION_DDOT": 0}, "tle": {"line1": "1 65729U 98067XH  25350.55126142  .00155828  00000+0  10911-2 0  9992", "line2": "2 65729  51.6242 116.2265 0007117 302.7560  57.2752 15.73199780 13768"}}, "geometry": {"type": "Point", "coordinates": [-79.9887973017636, 12.978247556994315]}}, {"type": "Feature", "properties": {"norad_id": 65731, "name": "1998-067XK", "group": "stations", "lat": 47.97786960057488, "lon": 173.81164564555652, "alt_km": 364.68914111275444, "timestamp": "2025-12-17T15:50:08.541294+00:00", "meta": {"OBJECT_NAME": "1998-067XK", "OBJECT_ID": "1998-067XK", "EPOCH": "2025-12-17T07:52:39.640512", "MEAN_MOTION": 15.66619236, "ECCENTRICITY": 0.0004756, "INCLINATION": 51.6284, "RA_OF_ASC_NODE": 113.9366, "ARG_OF_PERICENTER": 276.4225, "MEAN_ANOMALY": 83.6229, "EPHEMERIS_TYPE": 0, "CLASSIFICATION_TYPE": "U", "NORAD_CAT_ID": 65731, "ELEMENT_SET_NO": 999, "REV_AT_EPOCH": 1386, "BSTAR": 0.00081077835, "MEAN_MOTION_DOT": 0.00087081, "MEAN_MOTION_DDOT": 0}, "tle": {"line1": "1 65731U 98067XK  25351.32823658  .00087081  00000+0  81078-3 0  9995", "line2": "2 65731  51.6284 113.9366 0004756 276.4225  83.6229 15.66619236 13862"}}, "geometry": {"type": "Point", "coordinates": [173.81164564555652, 47.97786960057488]}}, {"type": "Feature", "properties": {"norad_id": 65732, "name": "RSP-03", "group": "stations", "lat": 50.95104589172531, "lon": -146.2138544997407, "alt_km": 356.0442533363321, "timestamp": "2025-12-17T15:50:08.541305+00:00", "meta": {"OBJECT_NAME": "RSP-03", "OBJECT_ID": "1998-067XL", "EPOCH": "2025-12-16T14:58:29.275680", "MEAN_MOTION": 15.69615447, "ECCENTRICITY": 0.00056224, "INCLINATION": 51.6264, "RA_OF_ASC_NODE": 116.7219, "ARG_OF_PERICENTER": 277.262, "MEAN_ANOMALY": 82.7738, "EPHEMERIS_TYPE": 0, "CLASSIFICATION_TYPE": "U", "NORAD_CAT_ID": 65732, "ELEMENT_SET_NO": 999, "REV_AT_EPOCH": 1377, "BSTAR": 0.00094839264, "MEAN_MOTION_DOT": 0.00115729, "MEAN_MOTION_DDOT": 0}, "tle": {"line1": "1 65732U 98067XL  25350.62394995  .00115729  00000+0  94839-3 0  9995", "line2": "2 65732  51.6264 116.7219 0005622 277.2620  82.7738 15.69615447 13778"}}, "geometry": {"type": "Point", "coordinates": [-146.2138544997407, 50.95104589172531]}}, {"type": "Feature", "properties": {"norad_id": 65733, "name": "GHS-01", "group": "stations", "lat": 34.62119905849941, "lon": -103.309616280463, "alt_km": 339.76914751109234, "timestamp": "2025-12-17T15:50:08.541317+00:00", "meta": {"OBJECT_NAME": "GHS-01", "OBJECT_ID": "1998-067XM", "EPOCH": "2025-12-17T01:34:57.772416", "MEAN_MOTION": 15.7670504, "ECCENTRICITY": 0.00077979, "INCLINATION": 51.6275, "RA_OF_ASC_NODE": 112.9208, "ARG_OF_PERICENTER": 309.7819, "MEAN_ANOMALY": 50.2494, "EPHEMERIS_TYPE": 0, "CLASSIFICATION_TYPE": "U", "NORAD_CAT_ID": 65733, "ELEMENT_SET_NO": 999, "REV_AT_EPOCH": 1386, "BSTAR": 0.0011963586, "MEAN_MOTION_DOT": 0.00200259, "MEAN_MOTION_DDOT": 0}, "tle": {"line1": "1 65733U 98067XM  25351.06594644  .00200259  00000+0  11964-2 0  9998", "line2": "2 65733  51.6275 112.9208 0007797 309.7819  50.2494 15.76705040 13869"}}, "geometry": {"type": "Point", "coordinates": [-103.309616280463, 34.62119905849941]}}, {"type": "Feature", "properties": {"norad_id": 65941, "name": "YOTSUBA-KULOVER", "group": "stations", "lat": 50.15123480897428, "lon": -173.07610869377842, "alt_km": 381.2218876785719, "timestamp": "2025-12-17T15:50:08.541329+00:00", "meta": {"OBJECT_NAME": "YOTSUBA-KULOVER", "OBJECT_ID": "1998-067XN", "EPOCH": "2025-12-16T14:54:10.853280", "MEAN_MOTION": 15.59985033, "ECCENTRICITY": 0.00014592, "INCLINATION": 51.6282, "RA_OF_ASC_NODE": 120.4613, "ARG_OF_PERICENTER": 292.17, "MEAN_ANOMALY": 67.9139, "EPHEMERIS_TYPE": 0, "CLASSIFICATION_TYPE": "U", "NORAD_CAT_ID": 65941, "ELEMENT_SET_NO": 999, "REV_AT_EPOCH": 1046, "BSTAR": 0.00069919558, "MEAN_MOTION_DOT": 0.00057497, "MEAN_MOTION_DDOT": 0}, "tle": {"line1": "1 65941U 98067XN  25350.62095895  .00057497  00000+0  69920-3 0  9994", "line2": "2 65941  51.6282 120.4613 0001459 292.1700  67.9139 15.59985033 10462"}}, "geometry": {"type": "Point", "coordinates": [-173.07610869377842, 50.15123480897428]}}, {"type": "Feature", "properties": {"norad_id": 65942, "name": "BOTAN", "group": "stations", "lat": 46.975802448891436, "lon": -123.6861786586388, "alt_km": 371.79607073866646, "timestamp": "2025-12-17T15:50:08.541343+00:00", "meta": {"OBJECT_NAME": "BOTAN", "OBJECT_ID": "1998-067XP", "EPOCH": "2025-12-17T01:33:35.223264", "MEAN_MOTION": 15.63787081, "ECCENTRICITY": 0.00028324, "INCLINATION": 51.6279, "RA_OF_ASC_NODE": 117.4271, "ARG_OF_PERICENTER": 275.6508, "MEAN_ANOMALY": 84.4163, "EPHEMERIS_TYPE": 0, "CLASSIFICATION_TYPE": "U", "NORAD_CAT_ID": 65942, "ELEMENT_SET_NO": 999, "REV_AT_EPOCH": 1054, "BSTAR": 0.0010066174, "MEAN_MOTION_DOT": 0.00096733, "MEAN_MOTION_DDOT": 0}, "tle": {"line1": "1 65942U 98067XP  25351.06499101  .00096733  00000+0  10066-2 0  9994", "line2": "2 65942  51.6279 117.4271 0002832 275.6508  84.4163 15.63787081 10541"}}, "geometry": {"type": "Point", "coordinates": [-123.6861786586388, 46.975802448891436]}}, {"type": "Feature", "properties": {"norad_id": 65943, "name": "E-KAGAKU-1", "group": "stations", "lat": 49.97211572565806, "lon": -174.14495997800208, "alt_km": 381.5598569899321, "timestamp": "2025-12-17T15:50:08.541355+00:00", "meta": {"OBJECT_NAME": "E-KAGAKU-1", "OBJECT_ID": "1998-067XQ", "EPOCH": "2025-12-15T15:50:32.577792", "MEAN_MOTION": 15.59851021, "ECCENTRICITY": 0.00016366, "INCLINATION": 51.6292, "RA_OF_ASC_NODE": 125.299, "ARG_OF_PERICENTER": 221.4661, "MEAN_ANOMALY": 138.6208, "EPHEMERIS_TYPE": 0, "CLASSIFICATION_TYPE": "U", "NORAD_CAT_ID": 65943, "ELEMENT_SET_NO": 999, "REV_AT_EPOCH": 1031, "BSTAR": 0.0006409113, "MEAN_MOTION_DOT": 0.00052357, "MEAN_MOTION_DDOT": 0}, "tle": {"line1": "1 65943U 98067XQ  25349.66009928  .00052357  00000+0  64091-3 0  9994", "line2": "2 65943  51.6292 125.2990 0001636 221.4661 138.6208 15.59851021 10310"}}, "geometry": {"type": "Point", "coordinates": [-174.14495997800208, 49.97211572565806]}}]}